STARLINK-32646          
1 62307U 24239G   26068.60099537  .00041686  00000+0  14122-2 0  9995
2 62307  53.1574 181.3143 0001308  66.7329 293.3809 15.30189569 69557
TEVEL2-4                
1 63213U 25052D   26068.69417973  .00020990  00000+0  70363-3 0  9998
2 63213  97.4009 325.1237 0004733  95.3468 264.8313 15.30925813 54879
